[{"OBJECT_NAME":"ICEYE-X31","OBJECT_ID":"2023-174AJ","EPOCH":"2026-03-09T23:06:20.433600","MEAN_MOTION":15.30950809,"ECCENTRICITY":0.00015021,"INCLINATION":97.3851,"RA_OF_ASC_NODE":144.9524,"ARG_OF_PERICENTER":332.6589,"MEAN_ANOMALY":27.4572,"EPHEMERIS_TYPE":0,"CLASSIFICATION_TYPE":"U","NORAD_CAT_ID":58288,"ELEMENT_SET_NO":999,"REV_AT_EPOCH":12955,"BSTAR":0.00066288467,"MEAN_MOTION_DOT":0.00019777,"MEAN_MOTION_DDOT":0},{"OBJECT_NAME":"STARLINK-31518","OBJECT_ID":"2024-046U","EPOCH":"2026-03-09T12:08:47.517792","MEAN_MOTION":15.30188263,"ECCENTRICITY":0.00012374,"INCLINATION":53.16,"RA_OF_ASC_NODE":156.0298,"ARG_OF_PERICENTER":97.9382,"MEAN_ANOMALY":262.176,"EPHEMERIS_TYPE":0,"CLASSIFICATION_TYPE":"U","NORAD_CAT_ID":59219,"ELEMENT_SET_NO":999,"REV_AT_EPOCH":11301,"BSTAR":2.5793471e-5,"MEAN_MOTION_DOT":4.05e-6,"MEAN_MOTION_DDOT":0}]
